NORAD_CAT_ID,OBJECT_NAME,OBJECT_TYPE,EPOCH,MEAN_MOTION,ECCENTRICITY,INCLINATION,RA_OF_ASC_NODE,ARG_OF_PERICENTER,MEAN_ANOMALY,BSTAR,MEAN_MOTION_DOT,MEAN_MOTION_DDOT,TLE_LINE0,TLE_LINE1,TLE_LINE2,SEMIMAJOR_AXIS,PERIOD,APOGEE,PERIGEE,DECAYED
54070.0,STARLINK-5181,PAYLOAD,2023-09-02 10:48:13,15.08839112,0.0001513,53.2159,150.4885,92.9515,267.1651,5.2665e-05,5.5e-06,0.0,0 STARLINK-5181,1 54070U 22136V   23245.45016026  .00000550  00000-0  52665-4 0  9998,2 54070  53.2159 150.4885 0001513  92.9515 267.1651 15.08839112 48070,6917.883,95.438,540.795,538.701,0.0
54070.0,STARLINK-5181,PAYLOAD,2023-09-02 18:45:09,15.08835793,0.0001518,53.2163,149.0021,90.5963,269.5203,3.6967e-06,-2.29e-06,0.0,0 STARLINK-5181,1 54070U 22136V   23245.78136455 -.00000229  00000-0  36967-5 0  9995,2 54070  53.2163 149.0021 0001518  90.5963 269.5203 15.08835793 48606,6917.893,95.438,540.808,538.708,0.0
54070.0,STARLINK-5181,PAYLOAD,2023-09-03 02:42:04,15.08845715,0.0001424,53.2163,147.5151,92.5538,267.5617,8.6034e-05,1.082e-05,0.0,0 STARLINK-5181,1 54070U 22136V   23246.11255503  .00001082  00000-0  86034-4 0  9995,2 54070  53.2163 147.5151 0001424  92.5538 267.5617 15.08845715 48656,6917.863,95.437,540.713,538.743,0.0
54070.0,STARLINK-5181,PAYLOAD,2023-09-03 10:39:01,15.08838984,0.0001489,53.2167,146.0285,86.6414,273.4748,2.9951e-05,1.89e-06,0.0,0 STARLINK-5181,1 54070U 22136V   23246.44376209  .00000189  00000-0  29951-4 0  9990,2 54070  53.2167 146.0285 0001489  86.6414 273.4748 15.08838984 48707,6917.883,95.438,540.779,538.718,0.0
54070.0,STARLINK-5181,PAYLOAD,2023-09-04 10:29:48,15.08831986,0.0001378,53.2168,141.5677,88.5351,271.5799,2.4077e-05,9.5e-07,0.0,0 STARLINK-5181,1 54070U 22136V   23247.43736738  .00000095  00000-0  24077-4 0  9997,2 54070  53.2168 141.5677 0001378  88.5351 271.5799 15.08831986 48857,6917.905,95.438,540.723,538.817,0.0
54070.0,STARLINK-5181,PAYLOAD,2023-09-05 02:23:39,15.08840538,0.0001306,53.2167,138.5939,89.5404,270.5738,-4.6447e-06,-3.62e-06,0.0,0 STARLINK-5181,1 54070U 22136V   23248.09976480 -.00000362  00000-0 -46447-5 0  9995,2 54070  53.2167 138.5939 0001306  89.5404 270.5738 15.08840538 48950,6917.879,95.438,540.647,538.84,0.0
54070.0,STARLINK-5181,PAYLOAD,2023-09-06 02:14:02,15.09049699,7.56e-05,53.2169,134.132,46.4426,313.6629,0.0014526,0.00023039,0.0,0 STARLINK-5181,1 54070U 22136V   23249.09308621  .00023039  00000-0  14526-2 0  9996,2 54070  53.2169 134.1320 0000756  46.4426 313.6629 15.09049699 49108,6917.239,95.424,539.627,538.582,0.0
54070.0,STARLINK-5181,PAYLOAD,2023-09-06 08:35:05,15.09389999,0.0001982,53.2168,132.9403,76.5241,283.5972,0.0040827,0.00066294,0.0,0 STARLINK-5181,1 54070U 22136V   23249.35769709  .00066294  00000-0  40827-2 0  9996,2 54070  53.2168 132.9403 0001982  76.5241 283.5972 15.09389999 49146,6916.2,95.403,539.436,536.694,0.0
54070.0,STARLINK-5181,PAYLOAD,2023-09-07 14:00:01,15.10452057,0.0001443,53.2157,127.4275,91.4697,94.9732,0.0032623,0.00054397,0.0,0 STARLINK-5181,1 54070U 22136V   23250.58334491  .00054397  00000-0  32623-2 0  9995,2 54070  53.2157 127.4275 0001443  91.4697  94.9732 15.10452057 49330,6912.957,95.336,535.82,533.825,0.0
54070.0,STARLINK-5181,PAYLOAD,2023-09-07 22:00:00,15.10503338,0.0001477,53.2158,125.9289,87.5901,112.4077,-0.0038492,-0.00063853,0.0,0 STARLINK-5181,1 54070U 22136V   23250.91667824 -.00063853  00000-0 -38492-2 0  9990,2 54070  53.2158 125.9289 0001477  87.5901 112.4077 15.10503338  5856,6912.801,95.332,535.687,533.645,0.0
54070.0,STARLINK-5181,PAYLOAD,2023-09-08 06:00:02,15.10481109,0.0001406,53.2157,124.4285,87.454,126.165,-0.00047541,-8.199e-05,0.0,0 STARLINK-5181,1 54070U 22136V   23251.25002315 -.00008199  00000-0 -47541-3 0  9994,2 54070  53.2157 124.4285 0001406  87.4540 126.1650 15.10481109 49437,6912.869,95.334,535.706,533.762,0.0
54070.0,STARLINK-5181,PAYLOAD,2023-09-08 14:00:01,15.10464737,0.0001406,53.2159,122.9271,97.7281,129.3933,0.0029449,0.00049056,0.0,0 STARLINK-5181,1 54070U 22136V   23251.58334491  .00049056  00000-0  29449-2 0  9994,2 54070  53.2159 122.9271 0001406  97.7281 129.3933 15.10464737  5768,6912.919,95.335,535.756,533.812,0.0
54070.0,STARLINK-5181,PAYLOAD,2023-09-08 22:00:00,15.10513406,0.0001412,53.2159,121.4286,87.421,153.268,-0.0042458,-0.00070357,0.0,0 STARLINK-5181,1 54070U 22136V   23251.91667824 -.00070357  00000-0 -42458-2 0  9995,2 54070  53.2159 121.4286 0001412  87.4210 153.2680 15.10513406  5812,6912.77,95.332,535.611,533.659,0.0
54070.0,STARLINK-5181,PAYLOAD,2023-09-09 14:00:01,15.10442398,0.0001558,53.2158,118.4267,93.0057,174.7988,-0.027888,-0.00436859,0.0,0 STARLINK-5181,1 54070U 22136V   23252.58334491 -.00436859  00000-0 -27888-1 0  9992,2 54070  53.2158 118.4267 0001558  93.0057 174.7988 15.10442398 49637,6912.987,95.336,535.929,533.775,0.0
54070.0,STARLINK-5181,PAYLOAD,2023-09-10 03:07:06,15.10195122,0.0001287,53.2158,115.9678,101.8132,258.3006,-0.0020993,-0.00034802,0.0,0 STARLINK-5181,1 54070U 22136V   23253.12993459 -.00034802  00000-0 -20993-2 0  9991,2 54070  53.2158 115.9678 0001287 101.8132 258.3006 15.10195122 49715,6913.741,95.352,536.496,534.717,0.0
54070.0,STARLINK-5181,PAYLOAD,2023-09-10 14:00:01,15.09478099,0.000145,53.2154,113.93,95.1573,211.491,-0.029951,-0.00455617,0.0,0 STARLINK-5181,1 54070U 22136V   23253.58334491 -.00455617  00000-0 -29951-1 0  9999,2 54070  53.2154 113.9300 0001450  95.1573 211.4910 15.09478099 49783,6915.931,95.397,538.798,536.793,0.0
54070.0,STARLINK-5181,PAYLOAD,2023-09-10 19:00:30,15.09915507,0.0001966,53.2167,112.9951,138.1772,221.9371,-0.0039129,-0.00063865,0.0,0 STARLINK-5181,1 54070U 22136V   23253.79201820 -.00063865  00000-0 -39129-2 0  9990,2 54070  53.2167 112.9951 0001966 138.1772 221.9371 15.09915507 49810,6914.595,95.37,537.819,535.101,0.0
54070.0,STARLINK-5181,PAYLOAD,2023-09-10 23:46:45,15.09672861,0.0001466,53.2165,112.1032,92.985,267.131,-0.0056527,-0.0009117,0.0,0 STARLINK-5181,1 54070U 22136V   23253.99080792 -.00091170  00000-0 -56527-2 0  9996,2 54070  53.2165 112.1032 0001466  92.9850 267.1310 15.09672861 49840,6915.336,95.385,538.215,536.187,0.0
54070.0,STARLINK-5181,PAYLOAD,2023-09-11 14:00:01,15.08817274,0.000163,53.215,109.4395,98.1486,244.0426,0.0018946,0.00029975,0.0,0 STARLINK-5181,1 54070U 22136V   23254.58334491  .00029975  00000-0  18946-2 0  9995,2 54070  53.2150 109.4395 0001630  98.1486 244.0426 15.08817274 49931,6917.95,95.439,540.942,538.687,0.0
54070.0,STARLINK-5181,PAYLOAD,2023-09-12 06:00:00,15.08835475,0.0001412,53.2146,106.4476,88.3138,277.0395,-0.0013444,-0.00021618,0.0,0 STARLINK-5181,1 54070U 22136V   23255.25001157 -.00021618  00000-0 -13444-2 0  9996,2 54070  53.2146 106.4476 0001412  88.3138 277.0395 15.08835475 50033,6917.894,95.438,540.736,538.782,0.0
54070.0,STARLINK-5181,PAYLOAD,2023-09-12 14:00:01,15.08825584,0.0001449,53.2148,104.9502,94.4406,282.5549,0.0022058,0.00034978,0.0,0 STARLINK-5181,1 54070U 22136V   23255.58335648  .00034978  00000-0  22058-2 0  9999,2 54070  53.2148 104.9502 0001449  94.4406 282.5549 15.08825584  5766,6917.924,95.438,540.792,538.787,0.0
54070.0,STARLINK-5181,PAYLOAD,2023-09-12 22:00:00,15.08844437,0.0001469,53.2148,103.4555,81.7063,306.8251,-0.001416,-0.00022756,0.0,0 STARLINK-5181,1 54070U 22136V   23255.91667824 -.00022756  00000-0 -14160-2 0  9998,2 54070  53.2148 103.4555 0001469  81.7063 306.8251 15.08844437 50137,6917.867,95.437,540.748,538.716,0.0
54070.0,STARLINK-5181,PAYLOAD,2023-09-13 14:00:01,15.08853694,0.0001407,53.215,100.4607,89.1489,322.5808,0.0023045,0.00036593,0.0,0 STARLINK-5181,1 54070U 22136V   23256.58334491  .00036593  00000-0  23045-2 0  9997,2 54070  53.2150 100.4607 0001407  89.1489 322.5808 15.08853694 50230,6917.839,95.437,540.677,538.73,0.0
54070.0,STARLINK-5181,PAYLOAD,2023-09-13 22:00:00,15.08875602,0.0001443,53.215,98.9659,83.5899,339.7638,-0.0054858,-0.0008663,0.0,0 STARLINK-5181,1 54070U 22136V   23256.91667824 -.00086630  00000-0 -54858-2 0  9998,2 54070  53.2150  98.9659 0001443  83.5899 339.7638 15.08875602 50280,6917.772,95.435,540.635,538.638,0.0
54070.0,STARLINK-5181,PAYLOAD,2023-09-14 14:00:01,15.08819935,0.0001414,53.2153,95.9711,98.2807,348.2922,0.0012849,0.00020209,0.0,0 STARLINK-5181,1 54070U 22136V   23257.58335648  .00020209  00000-0  12849-2 0  9990,2 54070  53.2153  95.9711 0001414  98.2807 348.2922 15.08819935 50399,6917.942,95.439,540.785,538.829,0.0
54070.0,STARLINK-5181,PAYLOAD,2023-09-14 22:00:00,15.08817567,0.0001394,53.2154,94.4764,88.0226,10.0703,0.0015629,0.00024658,0.0,0 STARLINK-5181,1 54070U 22136V   23257.91667824  .00024658  00000-0  15629-2 0  9992,2 54070  53.2154  94.4764 0001394  88.0226  10.0703 15.08817567  5863,6917.949,95.439,540.778,538.85,0.0
54070.0,STARLINK-5181,PAYLOAD,2023-09-14 23:09:26,15.08833897,0.0001325,53.2173,94.2572,94.8804,265.2339,-4.2347e-05,-9.62e-06,0.0,0 STARLINK-5181,1 54070U 22136V   23257.96489464 -.00000962  00000-0 -42347-4 0  9992,2 54070  53.2173  94.2572 0001325  94.8804 265.2339 15.08833897 50447,6917.899,95.438,540.681,538.847,0.0
54070.0,STARLINK-5181,PAYLOAD,2023-09-15 11:52:31,15.08840006,0.0001242,53.2171,91.8785,92.1738,267.9397,-4.866e-05,-1.062e-05,0.0,0 STARLINK-5181,1 54070U 22136V   23258.49481273 -.00001062  00000-0 -48660-4 0  9997,2 54070  53.2171  91.8785 0001242  92.1738 267.9397 15.08840006 50048,6917.88,95.438,540.605,538.886,0.0
54070.0,STARLINK-5181,PAYLOAD,2023-09-15 18:14:03,15.08846395,0.0001263,53.2172,90.6905,89.739,270.3747,-1.5507e-06,-3.13e-06,0.0,0 STARLINK-5181,1 54070U 22136V   23258.75976689 -.00000313  00000-0 -15507-5 0  9999,2 54070  53.2172  90.6905 0001263  89.7390 270.3747 15.08846395 50560,6917.861,95.437,540.6,538.852,0.0
54070.0,STARLINK-5181,PAYLOAD,2023-09-16 13:18:42,15.08830628,0.0001328,53.2172,87.1219,93.6355,266.4789,0.00011305,1.511e-05,0.0,0 STARLINK-5181,1 54070U 22136V   23259.55465632  .00001511  00000-0  11305-3 0  9998,2 54070  53.2172  87.1219 0001328  93.6355 266.4789 15.08830628 50201,6917.909,95.438,540.693,538.855,0.0
